[{"OBJECT_NAME":"SDA_1669","OBJECT_ID":"2025-230F","EPOCH":"2026-03-09T23:15:29.145312","MEAN_MOTION":13.85259499,"ECCENTRICITY":0.00048218,"INCLINATION":81.3002,"RA_OF_ASC_NODE":303.6388,"ARG_OF_PERICENTER":103.9978,"MEAN_ANOMALY":256.1716,"EPHEMERIS_TYPE":0,"CLASSIFICATION_TYPE":"U","NORAD_CAT_ID":65979,"ELEMENT_SET_NO":999,"REV_AT_EPOCH":2008,"BSTAR":0.00013412662,"MEAN_MOTION_DOT":1.64e-6,"MEAN_MOTION_DDOT":0},{"OBJECT_NAME":"SL-16 DEB","OBJECT_ID":"1992-093DX","EPOCH":"2026-03-09T11:27:16.947936","MEAN_MOTION":13.96062834,"ECCENTRICITY":0.01155116,"INCLINATION":71.235,"RA_OF_ASC_NODE":65.9394,"ARG_OF_PERICENTER":194.4105,"MEAN_ANOMALY":333.5908,"EPHEMERIS_TYPE":0,"CLASSIFICATION_TYPE":"U","NORAD_CAT_ID":22430,"ELEMENT_SET_NO":999,"REV_AT_EPOCH":68655,"BSTAR":0.00016478448,"MEAN_MOTION_DOT":1.95e-6,"MEAN_MOTION_DDOT":0}]
